     2.100          NAVIGATION                              RINEX VERSION / TYPE
fic2rin                                 10/07/2016 00:11:02 PGM / RUN BY / DATE
                                                            END OF HEADER
 7 16 10  6  6  0  0.0  .421735923737D-03 -.306954461848D-11  .000000000000D+00
     .800000000000D+01  .762187500000D+02  .457483341732D-08  .286069928048D+01
     .391155481339D-05  .100273968419D-01  .485964119434D-05  .515363062286D+04
     .367200000000D+06 -.465661287308D-07 -.138218581423D+01 -.130385160446D-06
     .964620058332D+00  .291500000000D+03 -.262370246132D+01 -.808533678673D-08
     .234295473633D-09  .100000000000D+01  .191700000000D+04  .000000000000D+00
     .240000000000D+01  .000000000000D+00 -.111758708954D-07  .800000000000D+01
     .360006000000D+06  .400000000000D+01
 8 16 10  6  6  0  0.0 -.344454310834D-04 -.147792889038D-11  .000000000000D+00
     .280000000000D+02 -.404062500000D+02  .425410577201D-08  .181720073325D+00
    -.211037695408D-05  .178625574335D-02  .100079923868D-04  .515376190186D+04
     .367200000000D+06 -.186264514923D-08  .680781342510D+00 -.298023223877D-07
     .964646702459D+00  .191906250000D+03 -.102137418904D+01 -.790461497323D-08
    -.185722021782D-10  .100000000000D+01  .191700000000D+04  .000000000000D+00
     .240000000000D+01  .000000000000D+00  .512227416039D-08  .280000000000D+02
     .360006000000D+06  .400000000000D+01
 9 16 10  6  6  0  0.0  .219712499529D-03  .727595761418D-11  .000000000000D+00
     .430000000000D+02  .489062500000D+02  .450340187048D-08 -.559239789759D+00
     .227987766266D-05  .563022331335D-03  .102557241917D-04  .515377700424D+04
     .367200000000D+06  .298023223877D-07 -.246096605270D+01 -.931322574615D-08
     .954696195546D+00  .180968750000D+03  .192410306959D+01 -.796926052312D-08
    -.671456540289D-10  .100000000000D+01  .191700000000D+04  .000000000000D+00
     .240000000000D+01  .000000000000D+00  .139698386192D-08  .430000000000D+02
     .360006000000D+06  .400000000000D+01
11 16 10  6  6  0  0.0 -.666181556880D-03 -.113686837722D-11  .000000000000D+00
     .760000000000D+02  .133437500000D+02  .575309678243D-08  .295825740460D+01
     .778585672379D-06  .168129790109D-01  .801123678684D-05  .515368230629D+04
     .367200000000D+06  .178813934326D-06  .135600914224D+01 -.186264514923D-08
     .897808790071D+00  .187093750000D+03  .158341697373D+01 -.836070539980D-08
     .281440294547D-09  .100000000000D+01  .191700000000D+04  .000000000000D+00
     .340000000000D+01  .000000000000D+00 -.121071934700D-07  .760000000000D+02
     .360006000000D+06  .400000000000D+01
12 16 10  6  6  0  0.0  .389101449400D-03  .227373675443D-12  .000000000000D+00
     .170000000000D+02 -.504687500000D+02  .399945230753D-08  .226473900198D+01
    -.279396772385D-05  .604347733315D-02  .494718551636D-05  .515364965820D+04
     .367200000000D+06 -.912696123123D-07 -.303068086402D+00 -.577419996262D-07
     .990291115108D+00  .298843750000D+03  .786772286738D+00 -.787604235449D-08
    -.231438211759D-09  .100000000000D+01  .191700000000D+04  .000000000000D+00
     .240000000000D+01  .000000000000D+00 -.125728547573D-07  .170000000000D+02
     .360006000000D+06  .400000000000D+01
13 16 10  6  6  0  0.0 -.477707944810D-04 -.216004991671D-11  .000000000000D+00
     .850000000000D+02  .533125000000D+02  .413874382386D-08 -.242357964659D+01
     .279210507870D-05  .399815116543D-02  .104531645775D-04  .515369076347D+04
     .367200000000D+06  .316649675369D-07 -.233826018686D+01  .186264514923D-07
     .970887350064D+00  .180812500000D+03  .193849915194D+01 -.774210820417D-08
    -.421446126351D-10  .100000000000D+01  .191700000000D+04  .000000000000D+00
     .240000000000D+01  .000000000000D+00 -.111758708954D-07  .850000000000D+02
     .360006000000D+06  .400000000000D+01
14 16 10  6  6  0  0.0 -.386601313949D-04 -.193267624127D-11  .000000000000D+00
     .590000000000D+02  .511562500000D+02  .432910889619D-08 -.107899394886D+01
     .287778675556D-05  .875133287627D-02  .976026058197D-05  .515359766960D+04
     .367200000000D+06  .745058059692D-08 -.237615151769D+01  .232830643654D-06
     .963412616951D+00  .194937500000D+03 -.194269109249D+01 -.796176021070D-08
     .100004165575D-10  .100000000000D+01  .191700000000D+04  .000000000000D+00
     .240000000000D+01  .000000000000D+00 -.931322574615D-08  .590000000000D+02
     .360006000000D+06  .400000000000D+01
15 16 10  6  6  0  0.0 -.329857692122D-03 -.136424205266D-11  .000000000000D+00
     .940000000000D+02  .290000000000D+02  .504842457286D-08 -.137146492149D+01
     .136718153954D-05  .856308382936D-02  .970251858234D-05  .515368129921D+04
     .367200000000D+06  .128522515297D-06 -.251677839625D+01 -.165775418282D-06
     .930418378060D+00  .170406250000D+03  .508184583699D+00 -.819498421113D-08
    -.714315468392D-10  .100000000000D+01  .191700000000D+04  .000000000000D+00
     .240000000000D+01  .000000000000D+00 -.107102096081D-07  .940000000000D+02
     .360006000000D+06  .400000000000D+01
16 16 10  6  6  0  0.0  .977562740445D-05  .181898940355D-11  .000000000000D+00
     .300000000000D+02 -.563437500000D+02  .403945397376D-08  .306139196178D+00
    -.287592411041D-05  .869378820062D-02  .514835119247D-05  .515357695389D+04
     .367200000000D+06  .465661287308D-07 -.284266069303D+00  .577419996262D-07
     .990797056549D+00  .292562500000D+03  .385922747140D+00 -.804390648956D-08
    -.318227541169D-09  .100000000000D+01  .191700000000D+04  .000000000000D+00
     .240000000000D+01  .000000000000D+00 -.107102096081D-07  .300000000000D+02
     .360006000000D+06  .400000000000D+01
17 16 10  6  6  0  0.0 -.201451592147D-03  .568434188608D-12  .000000000000D+00
     .000000000000D+00 -.485625000000D+02  .411517141341D-08 -.642299222455D+00
    -.249966979027D-05  .112497877562D-01  .100154429674D-04  .515375675774D+04
     .367200000000D+06 -.782310962677D-07  .735162105150D+00  .135973095894D-06
     .977775391584D+00  .197281250000D+03 -.192212826623D+01 -.800569061201D-08
     .103575742917D-10  .100000000000D+01  .191700000000D+04  .000000000000D+00
     .340000000000D+01  .000000000000D+00 -.107102096081D-07  .256000000000D+03
     .360006000000D+06  .400000000000D+01
18 16 10  6  6  0  0.0  .564371235669D-03  .352429196937D-11  .000000000000D+00
     .190000000000D+02 -.248750000000D+02  .559273295978D-08  .929439725364D+00
    -.135041773319D-05  .172518509207D-01  .667758285999D-05  .515371548653D+04
     .367200000000D+06 -.266358256340D-06  .274677589410D+01 -.186264514923D-07
     .925415356224D+00  .235062500000D+03 -.185719175675D+01 -.884929718018D-08
    -.290726395636D-09  .100000000000D+01  .191700000000D+04  .000000000000D+00
     .240000000000D+01  .000000000000D+00 -.111758708954D-07  .190000000000D+02
     .360006000000D+06  .400000000000D+01
19 16 10  6  6  0  0.0 -.522135291249D-03  .568434188608D-12  .000000000000D+00
     .920000000000D+02 -.579687500000D+02  .402266756025D-08  .248862838383D+01
    -.326521694660D-05  .104459616123D-01  .102482736111D-04  .515363558197D+04
     .367200000000D+06 -.130385160446D-07  .783574145934D+00 -.156462192535D-06
     .974897357737D+00  .187843750000D+03  .873290559554D+00 -.764067540766D-08
    -.250010413937D-11  .100000000000D+01  .191700000000D+04  .000000000000D+00
     .340000000000D+01  .000000000000D+00 -.149011611938D-07  .920000000000D+02
     .360006000000D+06  .400000000000D+01
20 16 10  6  6  0  0.0  .439340248704D-03  .193267624127D-11  .000000000000D+00
     .540000000000D+02 -.165000000000D+02  .542522598244D-08 -.150529904863D+01
    -.603497028351D-06  .470121868420D-02  .623054802418D-05  .515358503723D+04
     .367200000000D+06  .242143869400D-07  .269516335575D+01  .931322574615D-07
     .926684488860D+00  .237875000000D+03  .145420537806D+01 -.850999733269D-08
    -.114647632677D-09  .100000000000D+01  .191700000000D+04  .000000000000D+00
     .240000000000D+01  .000000000000D+00 -.838190317154D-08  .540000000000D+02
     .360006000000D+06  .400000000000D+01
22 16 10  6  6  0  0.0  .226321630180D-03 -.103455022327D-10  .000000000000D+00
     .510000000000D+02 -.226875000000D+02  .550058626435D-08 -.114012791440D+01
    -.977888703346D-06  .739473500289D-02  .664964318275D-05  .515370621872D+04
     .367200000000D+06 -.372529029846D-08  .274714922202D+01  .189989805222D-06
     .923367526924D+00  .230656250000D+03 -.186022350232D+01 -.860785855186D-08
    -.195365280605D-09  .100000000000D+01  .191700000000D+04  .000000000000D+00
     .240000000000D+01  .000000000000D+00 -.176951289177D-07  .510000000000D+02
     .360006000000D+06  .400000000000D+01
24 16 10  6  6  0  0.0 -.241803936660D-04 -.568434188608D-12  .000000000000D+00
     .490000000000D+02  .754375000000D+02  .498127891883D-08 -.244330694620D+01
     .377744436264D-05  .474972545635D-02  .558048486710D-05  .515372538376D+04
     .367200000000D+06 -.558793544769D-08 -.143165008664D+01 -.147148966789D-06
     .947688073321D+00  .266218750000D+03  .391612480277D+00 -.836249118847D-08
     .251081887140D-09  .100000000000D+01  .191700000000D+04  .000000000000D+00
     .240000000000D+01  .000000000000D+00  .232830643654D-08  .490000000000D+02
     .360006000000D+06  .400000000000D+01
25 16 10  6  6  0  0.0 -.258506275713D-03 -.693489710102D-11  .000000000000D+00
     .630000000000D+02 -.430937500000D+02  .435661004172D-08  .172854925084D+01
    -.228546559811D-05  .560836459044D-02  .457651913166D-05  .515369034576D+04
     .367200000000D+06 -.152736902237D-06 -.355521242350D+00  .447034835815D-07
     .978378353751D+00  .300218750000D+03  .779681758338D+00 -.812069540242D-08
    -.181436128972D-09  .100000000000D+01  .191700000000D+04  .000000000000D+00
     .240000000000D+01  .000000000000D+00  .558793544769D-08  .630000000000D+02
     .360006000000D+06  .400000000000D+01
